{
  "norad_id": 67890,
  "name": "STARLINK-36363",
  "history": [
    {
      "epoch": "2026-03-28T22:00:01.999584Z",
      "apogee_km": 344.8798717724176,
      "perigee_km": 342.8519779300477,
      "latitude_deg": -69.23685761993757,
      "longitude_deg": 25.334046953417673,
      "height_km": 370.7899874647308,
      "semi_major_axis_km": 6722.002924851232,
      "eccentricity": 0.00015084,
      "inclination_deg": 97.2867,
      "raan_deg": 21.2681,
      "arg_perigee_deg": 92.524,
      "mean_anomaly_deg": 157.7995,
      "mean_motion_rev_day": 15.75268963
    },
    {
      "epoch": "2026-03-29T00:00:01.999296Z",
      "apogee_km": 345.0533111219447,
      "perigee_km": 343.1831797126706,
      "latitude_deg": 2.437577840275785,
      "longitude_deg": -165.3747605423641,
      "height_km": 347.06026265339676,
      "semi_major_axis_km": 6722.255245417307,
      "eccentricity": 0.0001391,
      "inclination_deg": 97.2868,
      "raan_deg": 21.3561,
      "arg_perigee_deg": 96.0977,
      "mean_anomaly_deg": 266.4859,
      "mean_motion_rev_day": 15.75180272
    },
    {
      "epoch": "2026-03-30T01:54:34.543008Z",
      "apogee_km": 345.81107917819827,
      "perigee_km": 341.8933694184925,
      "latitude_deg": 2.311249410614567e-05,
      "longitude_deg": 166.36861825156845,
      "height_km": 347.76811620838714,
      "semi_major_axis_km": 6721.989224298345,
      "eccentricity": 0.00029141,
      "inclination_deg": 97.2864,
      "raan_deg": 22.489,
      "arg_perigee_deg": 112.5702,
      "mean_anomaly_deg": 247.5872,
      "mean_motion_rev_day": 15.75273779
    },
    {
      "epoch": "2026-03-30T14:06:24.468480Z",
      "apogee_km": 345.006380099514,
      "perigee_km": 342.3324455085003,
      "latitude_deg": 7.868347251034084e-05,
      "longitude_deg": -16.556932294471725,
      "height_km": 347.80106280303403,
      "semi_major_axis_km": 6721.806412804007,
      "eccentricity": 0.0001989,
      "inclination_deg": 97.2871,
      "raan_deg": 23.0224,
      "arg_perigee_deg": 136.213,
      "mean_anomaly_deg": 223.9294,
      "mean_motion_rev_day": 15.75338043
    },
    {
      "epoch": "2026-03-30T18:40:50.707488Z",
      "apogee_km": 344.9940091498229,
      "perigee_km": 342.6328568407298,
      "latitude_deg": 3.5774790016316634e-05,
      "longitude_deg": -85.15420148687946,
      "height_km": 347.4255814362207,
      "semi_major_axis_km": 6721.950432995276,
      "eccentricity": 0.00017563,
      "inclination_deg": 97.2874,
      "raan_deg": 23.2223,
      "arg_perigee_deg": 112.2115,
      "mean_anomaly_deg": 247.9337,
      "mean_motion_rev_day": 15.75287415
    },
    {
      "epoch": "2026-03-31T19:04:31.797408Z",
      "apogee_km": 345.27781180626425,
      "perigee_km": 341.67502701346075,
      "latitude_deg": 4.7991844834707775e-05,
      "longitude_deg": -91.01066633684265,
      "height_km": 347.4660130561447,
      "semi_major_axis_km": 6721.613419409862,
      "eccentricity": 0.000268,
      "inclination_deg": 97.2878,
      "raan_deg": 24.2889,
      "arg_perigee_deg": 117.2506,
      "mean_anomaly_deg": 242.9033,
      "mean_motion_rev_day": 15.75405891
    },
    {
      "epoch": "2026-04-01T13:22:17.270112Z",
      "apogee_km": 345.1636805163607,
      "perigee_km": 342.6361946278339,
      "latitude_deg": -4.5906936314513794e-05,
      "longitude_deg": -5.400311589113486,
      "height_km": 346.66613924881204,
      "semi_major_axis_km": 6722.036937572097,
      "eccentricity": 0.000188,
      "inclination_deg": 97.288,
      "raan_deg": 25.0901,
      "arg_perigee_deg": 71.5882,
      "mean_anomaly_deg": 288.5587,
      "mean_motion_rev_day": 15.75257007
    },
    {
      "epoch": "2026-04-02T13:45:56.975904Z",
      "apogee_km": 345.00828342902605,
      "perigee_km": 342.66177743264416,
      "latitude_deg": 8.17570638740868e-05,
      "longitude_deg": -11.251708555084702,
      "height_km": 347.6485370556777,
      "semi_major_axis_km": 6721.972030430835,
      "eccentricity": 0.00017454,
      "inclination_deg": 97.2875,
      "raan_deg": 26.156,
      "arg_perigee_deg": 123.4866,
      "mean_anomaly_deg": 236.6567,
      "mean_motion_rev_day": 15.75279823
    }
  ]
}